{
  "type": "FeatureCollection",
  "features": [
    {
      "type": "Feature",
      "properties": {
        "norad_id": 30913,
        "name": "FENGYUN 1C DEB",
        "group": "fengyun-1c-debris",
        "lat": 77.59646170972611,
        "lon": -33.58609274282724,
        "alt_km": 880.2285121936993,
        "timestamp": "2025-12-09T18:55:17.511286+00:00",
        "meta_object_name": "FENGYUN 1C DEB",
        "meta_object_id": "1999-025AZB",
        "meta_epoch": "2025-12-08T08:20:57.907680",
        "meta_mean_motion": 14.04940156,
        "meta_eccentricity": 0.00484104,
        "meta_inclination": 98.7465,
        "meta_ra_of_asc_node": 9.4518,
        "meta_arg_of_pericenter": 193.4219,
        "meta_mean_anomaly": 166.5665,
        "meta_ephemeris_type": 0,
        "meta_classification_type": "U",
        "meta_norad_cat_id": 30913,
        "meta_element_set_no": 999,
        "meta_rev_at_epoch": 95856,
        "meta_bstar": 0.0010166764,
        "meta_mean_motion_dot": 1.61e-05,
        "meta_mean_motion_ddot": 0,
        "tle_line1": "1 30913U 99025AZB 25342.34789245  .00001610  00000+0  10167-2 0  9993",
        "tle_line2": "2 30913  98.7465   9.4518 0048410 193.4219 166.5665 14.04940156958562"
      },
      "geometry": {
        "type": "Point",
        "coordinates": [
          -33.58609274282724,
          77.59646170972611
        ]
      }
    },
    {
      "type": "Feature",
      "properties": {
        "norad_id": 30914,
        "name": "FENGYUN 1C DEB",
        "group": "fengyun-1c-debris",
        "lat": -68.32049078306724,
        "lon": 21.582234886435895,
        "alt_km": 1352.8796978104565,
        "timestamp": "2025-12-09T18:55:17.511296+00:00",
        "meta_object_name": "FENGYUN 1C DEB",
        "meta_object_id": "1999-025AZC",
        "meta_epoch": "2025-12-05T09:02:51.683712",
        "meta_mean_motion": 13.08779712,
        "meta_eccentricity": 0.05156065,
        "meta_inclination": 99.9823,
        "meta_ra_of_asc_node": 223.7471,
        "meta_arg_of_pericenter": 11.0586,
        "meta_mean_anomaly": 350.1366,
        "meta_ephemeris_type": 0,
        "meta_classification_type": "U",
        "meta_norad_cat_id": 30914,
        "meta_element_set_no": 999,
        "meta_rev_at_epoch": 58979,
        "meta_bstar": 0.0075081183,
        "meta_mean_motion_dot": 4.885e-05,
        "meta_mean_motion_ddot": 0,
        "tle_line1": "1 30914U 99025AZC 25339.37698708  .00004885  00000+0  75081-2 0  9999",
        "tle_line2": "2 30914  99.9823 223.7471 0515606  11.0586 350.1366 13.08779712589796"
      },
      "geometry": {
        "type": "Point",
        "coordinates": [
          21.582234886435895,
          -68.32049078306724
        ]
      }
    },
    {
      "type": "Feature",
      "properties": {
        "norad_id": 30915,
        "name": "FENGYUN 1C DEB",
        "group": "fengyun-1c-debris",
        "lat": -0.29438623060363733,
        "lon": -120.1389415571906,
        "alt_km": 772.8225936358058,
        "timestamp": "2025-12-09T18:55:17.511306+00:00",
        "meta_object_name": "FENGYUN 1C DEB",
        "meta_object_id": "1999-025AZD",
        "meta_epoch": "2025-12-09T02:54:45.112608",
        "meta_mean_motion": 14.24996867,
        "meta_eccentricity": 0.00538445,
        "meta_inclination": 98.9415,
        "meta_ra_of_asc_node": 59.2281,
        "meta_arg_of_pericenter": 178.191,
        "meta_mean_anomaly": 181.9473,
        "meta_ephemeris_type": 0,
        "meta_classification_type": "U",
        "meta_norad_cat_id": 30915,
        "meta_element_set_no": 999,
        "meta_rev_at_epoch": 96461,
        "meta_bstar": 0.0019177953,
        "meta_mean_motion_dot": 4.513e-05,
        "meta_mean_motion_ddot": 0,
        "tle_line1": "1 30915U 99025AZD 25343.12135547  .00004513  00000+0  19178-2 0  9998",
        "tle_line2": "2 30915  98.9415  59.2281 0053844 178.1910 181.9473 14.24996867964619"
      },
      "geometry": {
        "type": "Point",
        "coordinates": [
          -120.1389415571906,
          -0.29438623060363733
        ]
      }
    },
    {
      "type": "Feature",
      "properties": {
        "norad_id": 30916,
        "name": "FENGYUN 1C DEB",
        "group": "fengyun-1c-debris",
        "lat": 37.757367530964636,
        "lon": 37.08441003795316,
        "alt_km": 890.7387559207546,
        "timestamp": "2025-12-09T18:55:17.511318+00:00",
        "meta_object_name": "FENGYUN 1C DEB",
        "meta_object_id": "1999-025AZE",
        "meta_epoch": "2025-12-09T03:31:45.007680",
        "meta_mean_motion": 14.0877406,
        "meta_eccentricity": 0.00625639,
        "meta_inclination": 99.002,
        "meta_ra_of_asc_node": 43.4963,
        "meta_arg_of_pericenter": 268.4567,
        "meta_mean_anomaly": 118.5461,
        "meta_ephemeris_type": 0,
        "meta_classification_type": "U",
        "meta_norad_cat_id": 30916,
        "meta_element_set_no": 999,
        "meta_rev_at_epoch": 95793,
        "meta_bstar": 0.0014002638,
        "meta_mean_motion_dot": 2.414e-05,
        "meta_mean_motion_ddot": 0,
        "tle_line1": "1 30916U 99025AZE 25343.14704870  .00002414  00000+0  14003-2 0  9992",
        "tle_line2": "2 30916  99.0020  43.4963 0062563 268.4567 118.5461 14.08774060957936"
      },
      "geometry": {
        "type": "Point",
        "coordinates": [
          37.08441003795316,
          37.757367530964636
        ]
      }
    },
    {
      "type": "Feature",
      "properties": {
        "norad_id": 30918,
        "name": "FENGYUN 1C DEB",
        "group": "fengyun-1c-debris",
        "lat": -68.97304154798614,
        "lon": -106.40588724122047,
        "alt_km": 963.1548185718075,
        "timestamp": "2025-12-09T18:55:17.511329+00:00",
        "meta_object_name": "FENGYUN 1C DEB",
        "meta_object_id": "1999-025AZG",
        "meta_epoch": "2025-12-09T07:44:10.539744",
        "meta_mean_motion": 13.96798125,
        "meta_eccentricity": 0.0158393,
        "meta_inclination": 98.4162,
        "meta_ra_of_asc_node": 95.8196,
        "meta_arg_of_pericenter": 134.8714,
        "meta_mean_anomaly": 291.8901,
        "meta_ephemeris_type": 0,
        "meta_classification_type": "U",
        "meta_norad_cat_id": 30918,
        "meta_element_set_no": 999,
        "meta_rev_at_epoch": 95005,
        "meta_bstar": 0.002218,
        "meta_mean_motion_dot": 3.39e-05,
        "meta_mean_motion_ddot": 0,
        "tle_line1": "1 30918U 99025AZG 25343.32234421  .00003390  00000+0  22180-2 0  9993",
        "tle_line2": "2 30918  98.4162  95.8196 0158393 134.8714 291.8901 13.96798125950058"
      },
      "geometry": {
        "type": "Point",
        "coordinates": [
          -106.40588724122047,
          -68.97304154798614
        ]
      }
    },
    {
      "type": "Feature",
      "properties": {
        "norad_id": 30920,
        "name": "FENGYUN 1C DEB",
        "group": "fengyun-1c-debris",
        "lat": -55.92945183180224,
        "lon": 138.50413327832857,
        "alt_km": 920.4387348386499,
        "timestamp": "2025-12-09T18:55:17.511339+00:00",
        "meta_object_name": "FENGYUN 1C DEB",
        "meta_object_id": "1999-025AZJ",
        "meta_epoch": "2025-12-09T09:01:22.384992",
        "meta_mean_motion": 14.16547904,
        "meta_eccentricity": 0.01103543,
        "meta_inclination": 98.9203,
        "meta_ra_of_asc_node": 124.6623,
        "meta_arg_of_pericenter": 108.0766,
        "meta_mean_anomaly": 253.2466,
        "meta_ephemeris_type": 0,
        "meta_classification_type": "U",
        "meta_norad_cat_id": 30920,
        "meta_element_set_no": 999,
        "meta_rev_at_epoch": 95046,
        "meta_bstar": 0.005372966,
        "meta_mean_motion_dot": 0.00011335,
        "meta_mean_motion_ddot": 0,
        "tle_line1": "1 30920U 99025AZJ 25343.37595353  .00011335  00000+0  53730-2 0  9998",
        "tle_line2": "2 30920  98.9203 124.6623 0110354 108.0766 253.2466 14.16547904950466"
      },
      "geometry": {
        "type": "Point",
        "coordinates": [
          138.50413327832857,
          -55.92945183180224
        ]
      }
    },
    {
      "type": "Feature",
      "properties": {
        "norad_id": 30921,
        "name": "FENGYUN 1C DEB",
        "group": "fengyun-1c-debris",
        "lat": 18.75656443880992,
        "lon": 68.17719457996799,
        "alt_km": 772.172721300346,
        "timestamp": "2025-12-09T18:55:17.511349+00:00",
        "meta_object_name": "FENGYUN 1C DEB",
        "meta_object_id": "1999-025AZK",
        "meta_epoch": "2025-12-09T12:12:31.922784",
        "meta_mean_motion": 14.32686681,
        "meta_eccentricity": 0.00170516,
        "meta_inclination": 98.8424,
        "meta_ra_of_asc_node": 70.9221,
        "meta_arg_of_pericenter": 47.9639,
        "meta_mean_anomaly": 329.4729,
        "meta_ephemeris_type": 0,
        "meta_classification_type": "U",
        "meta_norad_cat_id": 30921,
        "meta_element_set_no": 999,
        "meta_rev_at_epoch": 96778,
        "meta_bstar": 0.00263294,
        "meta_mean_motion_dot": 7.134e-05,
        "meta_mean_motion_ddot": 0,
        "tle_line1": "1 30921U 99025AZK 25343.50870281  .00007134  00000+0  26329-2 0  9996",
        "tle_line2": "2 30921  98.8424  70.9221 0017051  47.9639 329.4729 14.32686681967783"
      },
      "geometry": {
        "type": "Point",
        "coordinates": [
          68.17719457996799,
          18.75656443880992
        ]
      }
    }
  ]
}